SENTINEL-2A             
1 40697U 15028A   26197.86505050 -.00000046  00000+0 -10453-5 0  9995
2 40697  98.5681 272.2938 0001283  93.6328 266.5001 14.30814394577975
SENTINEL-2B             
1 42063U 17013A   26197.85786072 -.00000132  00000+0 -33627-4 0  9997
2 42063  98.5688 272.2120 0001205  89.8288 270.3033 14.30814801488882
SENTINEL-2C             
1 60989U 24157A   26197.61311992  .00000050  00000+0  35722-4 0  9995
2 60989  98.5684 271.9774 0000993 103.7400 256.3894 14.30815932 97196
