{"fetched_at":"2026-07-17T06:38:34.818Z","source":"https://celestrak.org/NORAD/elements/gp.php?NAME=SENTINEL&FORMAT=JSON","constellation":"sentinel-2","records":[{"OBJECT_NAME":"SENTINEL-2A","OBJECT_ID":"2015-028A","EPOCH":"2026-07-16T20:45:40.363200","CLASSIFICATION_TYPE":"U","MEAN_MOTION":14.30814394,"ECCENTRICITY":0.0001283,"INCLINATION":98.5681,"RA_OF_ASC_NODE":272.2938,"ARG_OF_PERICENTER":93.6328,"MEAN_ANOMALY":266.5001,"EPHEMERIS_TYPE":0,"NORAD_CAT_ID":40697,"ELEMENT_SET_NO":999,"REV_AT_EPOCH":57797,"BSTAR":-0.0000010453,"MEAN_MOTION_DOT":-4.6e-7,"MEAN_MOTION_DDOT":0},{"OBJECT_NAME":"SENTINEL-2B","OBJECT_ID":"2017-013A","EPOCH":"2026-07-16T20:35:19.166208","CLASSIFICATION_TYPE":"U","MEAN_MOTION":14.30814801,"ECCENTRICITY":0.0001205,"INCLINATION":98.5688,"RA_OF_ASC_NODE":272.212,"ARG_OF_PERICENTER":89.8288,"MEAN_ANOMALY":270.3033,"EPHEMERIS_TYPE":0,"NORAD_CAT_ID":42063,"ELEMENT_SET_NO":999,"REV_AT_EPOCH":48888,"BSTAR":-0.000033627,"MEAN_MOTION_DOT":-0.00000132,"MEAN_MOTION_DDOT":0},{"OBJECT_NAME":"SENTINEL-2C","OBJECT_ID":"2024-157A","EPOCH":"2026-07-16T14:42:53.561088","CLASSIFICATION_TYPE":"U","MEAN_MOTION":14.30815932,"ECCENTRICITY":0.0000993,"INCLINATION":98.5684,"RA_OF_ASC_NODE":271.9774,"ARG_OF_PERICENTER":103.74,"MEAN_ANOMALY":256.3894,"EPHEMERIS_TYPE":0,"NORAD_CAT_ID":60989,"ELEMENT_SET_NO":999,"REV_AT_EPOCH":9719,"BSTAR":0.000035722,"MEAN_MOTION_DOT":5e-7,"MEAN_MOTION_DDOT":0}]}
